{"type": "FeatureCollection", "features": [ {"type": "Feature", "properties": {"norad_id": 37470, "name": "FENGYUN 1C DEB", "group": "fengyun-1c-debris", "lat": 50.20209963337443, "lon": 109.16976806760655, "alt_km": 567.255976100575, "timestamp": "2025-12-03T08:58:46.291352+00:00", "meta": {"OBJECT_NAME": "FENGYUN 1C DEB", "OBJECT_ID": "1999-025EJQ", "EPOCH": "2025-12-02T08:43:26.114016", "MEAN_MOTION": 14.99042865, "ECCENTRICITY": 0.00053598, "INCLINATION": 98.6674, "RA_OF_ASC_NODE": 118.5972, "ARG_OF_PERICENTER": 185.6749, "MEAN_ANOMALY": 174.4411, "EPHEMERIS_TYPE": 0, "CLASSIFICATION_TYPE": "U", "NORAD_CAT_ID": 37470, "ELEMENT_SET_NO": 999, "REV_AT_EPOCH": 65306, "BSTAR": 0.0063565181, "MEAN_MOTION_DOT": 0.00077884, "MEAN_MOTION_DDOT": 0}, "tle": {"line1": "1 37470U 99025EJQ 25336.36349669  .00077884  00000+0  63565-2 0  9991", "line2": "2 37470  98.6674 118.5972 0005359 185.6749 174.4411 14.99042865653068"}}, "geometry": {"type": "Point", "coordinates": [109.16976806760655, 50.20209963337443]}}, {"type": "Feature", "properties": {"norad_id": 37474, "name": "FENGYUN 1C DEB", "group": "fengyun-1c-debris", "lat": 50.23898603168596, "lon": 12.480782183059558, "alt_km": 565.1341135127859, "timestamp": "2025-12-03T08:58:46.291363+00:00", "meta": {"OBJECT_NAME": "FENGYUN 1C DEB", "OBJECT_ID": "1999-025EJU", "EPOCH": "2025-11-29T19:43:16.370400", "MEAN_MOTION": 14.74736666, "ECCENTRICITY": 0.01322899, "INCLINATION": 99.1669, "RA_OF_ASC_NODE": 177.2713, "ARG_OF_PERICENTER": 175.3054, "MEAN_ANOMALY": 184.9427, "EPHEMERIS_TYPE": 0, "CLASSIFICATION_TYPE": "U", "NORAD_CAT_ID": 37474, "ELEMENT_SET_NO": 999, "REV_AT_EPOCH": 62185, "BSTAR": 0.0011640682, "MEAN_MOTION_DOT": 8.905e-05, "MEAN_MOTION_DDOT": 0}, "tle": {"line1": "1 37474U 99025EJU 25333.82171725  .00008905  00000+0  11641-2 0  9995", "line2": "2 37474  99.1669 177.2713 0132289 175.3054 184.9427 14.74736666621852"}}, "geometry": {"type": "Point", "coordinates": [12.480782183059558, 50.23898603168596]}}, {"type": "Feature", "properties": {"norad_id": 37477, "name": "FENGYUN 1C DEB", "group": "fengyun-1c-debris", "lat": 51.16623458640596, "lon": -28.535593058358703, "alt_km": 817.4276929372018, "timestamp": "2025-12-03T08:58:46.291373+00:00", "meta": {"OBJECT_NAME": "FENGYUN 1C DEB", "OBJECT_ID": "1999-025EJX", "EPOCH": "2025-11-30T11:23:01.539168", "MEAN_MOTION": 14.19666183, "ECCENTRICITY": 0.00370674, "INCLINATION": 98.6046, "RA_OF_ASC_NODE": 339.4881, "ARG_OF_PERICENTER": 141.4491, "MEAN_ANOMALY": 218.9343, "EPHEMERIS_TYPE": 0, "CLASSIFICATION_TYPE": "U", "NORAD_CAT_ID": 37477, "ELEMENT_SET_NO": 999, "REV_AT_EPOCH": 81740, "BSTAR": 0.00075322109, "MEAN_MOTION_DOT": 1.561e-05, "MEAN_MOTION_DDOT": 0}, "tle": {"line1": "1 37477U 99025EJX 25334.47432337  .00001561  00000+0  75322-3 0  9997", "line2": "2 37477  98.6046 339.4881 0037067 141.4491 218.9343 14.19666183817401"}}, "geometry": {"type": "Point", "coordinates": [-28.535593058358703, 51.16623458640596]}}, {"type": "Feature", "properties": {"norad_id": 37478, "name": "FENGYUN 1C DEB", "group": "fengyun-1c-debris", "lat": 35.472591208575, "lon": 147.75915344360047, "alt_km": 1647.2284411205337, "timestamp": "2025-12-03T08:58:46.291383+00:00", "meta": {"OBJECT_NAME": "FENGYUN 1C DEB", "OBJECT_ID": "1999-025EJY", "EPOCH": "2025-12-01T04:38:30.240384", "MEAN_MOTION": 13.02859978, "ECCENTRICITY": 0.0548927, "INCLINATION": 99.6439, "RA_OF_ASC_NODE": 318.8464, "ARG_OF_PERICENTER": 345.6465, "MEAN_ANOMALY": 12.9573, "EPHEMERIS_TYPE": 0, "CLASSIFICATION_TYPE": "U", "NORAD_CAT_ID": 37478, "ELEMENT_SET_NO": 999, "REV_AT_EPOCH": 56411, "BSTAR": 0.0056896, "MEAN_MOTION_DOT": 3.616e-05, "MEAN_MOTION_DDOT": 0}, "tle": {"line1": "1 37478U 99025EJY 25335.19340556  .00003616  00000+0  56896-2 0  9996", "line2": "2 37478  99.6439 318.8464 0548927 345.6465  12.9573 13.02859978564119"}}, "geometry": {"type": "Point", "coordinates": [147.75915344360047, 35.472591208575]}}, {"type": "Feature", "properties": {"norad_id": 37589, "name": "FENGYUN 1C DEB", "group": "fengyun-1c-debris", "lat": 49.79901615244454, "lon": 70.82187341527427, "alt_km": 944.2033156454936, "timestamp": "2025-12-03T08:58:46.291393+00:00", "meta": {"OBJECT_NAME": "FENGYUN 1C DEB", "OBJECT_ID": "1999-025EKH", "EPOCH": "2025-12-02T23:49:55.170624", "MEAN_MOTION": 14.07988933, "ECCENTRICITY": 0.0120616, "INCLINATION": 99.0733, "RA_OF_ASC_NODE": 239.5393, "ARG_OF_PERICENTER": 291.4169, "MEAN_ANOMALY": 67.4168, "EPHEMERIS_TYPE": 0, "CLASSIFICATION_TYPE": "U", "NORAD_CAT_ID": 37589, "ELEMENT_SET_NO": 999, "REV_AT_EPOCH": 82447, "BSTAR": 0.0045556, "MEAN_MOTION_DOT": 8.24e-05, "MEAN_MOTION_DDOT": 0}, "tle": {"line1": "1 37589U 99025EKH 25336.99299966  .00008240  00000+0  45556-2 0  9995", "line2": "2 37589  99.0733 239.5393 0120616 291.4169  67.4168 14.07988933824476"}}, "geometry": {"type": "Point", "coordinates": [70.82187341527427, 49.79901615244454]}}, {"type": "Feature", "properties": {"norad_id": 37594, "name": "FENGYUN 1C DEB", "group": "fengyun-1c-debris", "lat": -45.030795118430945, "lon": 178.11048897485935, "alt_km": 841.8629811651635, "timestamp": "2025-12-03T08:58:46.291403+00:00", "meta": {"OBJECT_NAME": "FENGYUN 1C DEB", "OBJECT_ID": "1999-025EKN", "EPOCH": "2025-12-01T20:10:06.711744", "MEAN_MOTION": 14.11100402, "ECCENTRICITY": 0.00849769, "INCLINATION": 98.7356, "RA_OF_ASC_NODE": 5.4727, "ARG_OF_PERICENTER": 301.0362, "MEAN_ANOMALY": 58.2487, "EPHEMERIS_TYPE": 0, "CLASSIFICATION_TYPE": "U", "NORAD_CAT_ID": 37594, "ELEMENT_SET_NO": 999, "REV_AT_EPOCH": 77608, "BSTAR": 0.00031068206, "MEAN_MOTION_DOT": 5.35e-06, "MEAN_MOTION_DDOT": 0}, "tle": {"line1": "1 37594U 99025EKN 25335.84035546  .00000535  00000+0  31068-3 0  9999", "line2": "2 37594  98.7356   5.4727 0084976 301.0362  58.2487 14.11100402776088"}}, "geometry": {"type": "Point", "coordinates": [178.11048897485935, -45.030795118430945]}}, {"type": "Feature", "properties": {"norad_id": 37600, "name": "FENGYUN 1C DEB", "group": "fengyun-1c-debris", "lat": -68.67999795012435, "lon": 158.30972210291876, "alt_km": 1175.9642294812083, "timestamp": "2025-12-03T08:58:46.291414+00:00", "meta": {"OBJECT_NAME": "FENGYUN 1C DEB", "OBJECT_ID": "1999-025EKU", "EPOCH": "2025-12-02T03:47:53.898144", "MEAN_MOTION": 13.82391905, "ECCENTRICITY": 0.03579786, "INCLINATION": 98.9356, "RA_OF_ASC_NODE": 133.381, "ARG_OF_PERICENTER": 78.289, "MEAN_ANOMALY": 285.8195, "EPHEMERIS_TYPE": 0, "CLASSIFICATION_TYPE": "U", "NORAD_CAT_ID": 37600, "ELEMENT_SET_NO": 999, "REV_AT_EPOCH": 88341, "BSTAR": 0.0036460247, "MEAN_MOTION_DOT": 6.409e-05, "MEAN_MOTION_DDOT": 0}, "tle": {"line1": "1 37600U 99025EKU 25336.15826271  .00006409  00000+0  36460-2 0  9991", "line2": "2 37600  98.9356 133.3810 0357978  78.2890 285.8195 13.82391905883413"}}, "geometry": {"type": "Point", "coordinates": [158.30972210291876, -68.67999795012435]}}, {"type": "Feature", "properties": {"norad_id": 37683, "name": "FENGYUN 1C DEB", "group": "fengyun-1c-debris", "lat": 9.731619889615205, "lon": 80.57942598458085, "alt_km": 728.0808951230647, "timestamp": "2025-12-03T08:58:46.291425+00:00", "meta": {"OBJECT_NAME": "FENGYUN 1C DEB", "OBJECT_ID": "1999-025EKY", "EPOCH": "2025-12-02T13:11:44.275200", "MEAN_MOTION": 13.31856332, "ECCENTRICITY": 0.0584424, "INCLINATION": 98.0017, "RA_OF_ASC_NODE": 258.5506, "ARG_OF_PERICENTER": 151.0621, "MEAN_ANOMALY": 26.3812, "EPHEMERIS_TYPE": 0, "CLASSIFICATION_TYPE": "U", "NORAD_CAT_ID": 37683, "ELEMENT_SET_NO": 999, "REV_AT_EPOCH": 29104, "BSTAR": 0.00139877, "MEAN_MOTION_DOT": 1.732e-05, "MEAN_MOTION_DDOT": 0}, "tle": {"line1": "1 37683U 99025EKY 25336.54981800  .00001732  00000+0  13988-2 0  9999", "line2": "2 37683  98.0017 258.5506 0584424 151.0621  26.3812 13.31856332291041"}}, "geometry": {"type": "Point", "coordinates": [80.57942598458085, 9.731619889615205]}}, {"type": "Feature", "properties": {"norad_id": 37686, "name": "FENGYUN 1C DEB", "group": "fengyun-1c-debris", "lat": 67.1986952727372, "lon": -25.32919196479987, "alt_km": 822.9711086496773, "timestamp": "2025-12-03T08:58:46.291435+00:00", "meta": {"OBJECT_NAME": "FENGYUN 1C DEB", "OBJECT_ID": "1999-025ELB", "EPOCH": "2025-12-02T07:33:22.437792", "MEAN_MOTION": 13.35350269, "ECCENTRICITY": 0.0396452, "INCLINATION": 99.0209, "RA_OF_ASC_NODE": 355.9344, "ARG_OF_PERICENTER": 68.1356, "MEAN_ANOMALY": 310.8807, "EPHEMERIS_TYPE": 0, "CLASSIFICATION_TYPE": "U", "NORAD_CAT_ID": 37686, "ELEMENT_SET_NO": 999, "REV_AT_EPOCH": 60488, "BSTAR": 0.0007759, "MEAN_MOTION_DOT": 5.81e-06, "MEAN_MOTION_DDOT": 0}, "tle": {"line1": "1 37686U 99025ELB 25336.31484303  .00000581  00000+0  77590-3 0  9994", "line2": "2 37686  99.0209 355.9344 0396452  68.1356 310.8807 13.35350269604882"}}, "geometry": {"type": "Point", "coordinates": [-25.32919196479987, 67.1986952727372]}}, {"type": "Feature", "properties": {"norad_id": 37687, "name": "FENGYUN 1C DEB", "group": "fengyun-1c-debris", "lat": -56.8621733242216, "lon": -179.11537625719512, "alt_km": 1155.733285981236, "timestamp": "2025-12-03T08:58:46.291446+00:00", "meta": {"OBJECT_NAME": "FENGYUN 1C DEB", "OBJECT_ID": "1999-025ELC", "EPOCH": "2025-12-02T21:59:51.254016", "MEAN_MOTION": 13.85146107, "ECCENTRICITY": 0.0333892, "INCLINATION": 98.2057, "RA_OF_ASC_NODE": 13.2525, "ARG_OF_PERICENTER": 26.1435, "MEAN_ANOMALY": 93.2081, "EPHEMERIS_TYPE": 0, "CLASSIFICATION_TYPE": "U", "NORAD_CAT_ID": 37687, "ELEMENT_SET_NO": 999, "REV_AT_EPOCH": 83118, "BSTAR": 0.0050447, "MEAN_MOTION_DOT": 8.809e-05, "MEAN_MOTION_DDOT": 0}, "tle": {"line1": "1 37687U 99025ELC 25336.91656544  .00008809  00000+0  50447-2 0  9991", "line2": "2 37687  98.2057  13.2525 0333892  26.1435  93.2081 13.85146107831181"}}, "geometry": {"type": "Point", "coordinates": [-179.11537625719512, -56.8621733242216]}}]}